[{"OBJECT_NAME":"STARLINK-1800","OBJECT_ID":"2020-073AG","EPOCH":"2026-03-10T00:00:02.999808","MEAN_MOTION":15.79776144,"ECCENTRICITY":0.00048232,"INCLINATION":53.0392,"RA_OF_ASC_NODE":207.8023,"ARG_OF_PERICENTER":307.6463,"MEAN_ANOMALY":354.6539,"EPHEMERIS_TYPE":0,"CLASSIFICATION_TYPE":"U","NORAD_CAT_ID":46700,"ELEMENT_SET_NO":999,"REV_AT_EPOCH":598,"BSTAR":0.001050296,"MEAN_MOTION_DOT":0.00201242,"MEAN_MOTION_DDOT":0},{"OBJECT_NAME":"CZ-6A DEB","OBJECT_ID":"2024-140AP","EPOCH":"2026-03-09T22:18:55.934784","MEAN_MOTION":15.63638112,"ECCENTRICITY":0.00667764,"INCLINATION":88.9828,"RA_OF_ASC_NODE":277.6017,"ARG_OF_PERICENTER":59.3743,"MEAN_ANOMALY":301.4087,"EPHEMERIS_TYPE":0,"CLASSIFICATION_TYPE":"U","NORAD_CAT_ID":60638,"ELEMENT_SET_NO":999,"REV_AT_EPOCH":8745,"BSTAR":0.0024220818,"MEAN_MOTION_DOT":0.00258741,"MEAN_MOTION_DDOT":0}]
